[{"OBJECT_NAME":"STARLINK-3961","OBJECT_ID":"2022-052AR","EPOCH":"2026-03-09T19:24:16.738848","MEAN_MOTION":15.08838259,"ECCENTRICITY":0.00012864,"INCLINATION":53.2165,"RA_OF_ASC_NODE":258.5882,"ARG_OF_PERICENTER":100.0936,"MEAN_ANOMALY":260.0202,"EPHEMERIS_TYPE":0,"CLASSIFICATION_TYPE":"U","NORAD_CAT_ID":52637,"ELEMENT_SET_NO":999,"REV_AT_EPOCH":21195,"BSTAR":-1.9491046e-5,"MEAN_MOTION_DOT":-5.98e-6,"MEAN_MOTION_DDOT":0},{"OBJECT_NAME":"RAAF M1","OBJECT_ID":"2018-099X","EPOCH":"2026-03-09T15:51:10.230048","MEAN_MOTION":15.07065376,"ECCENTRICITY":0.00134971,"INCLINATION":97.4534,"RA_OF_ASC_NODE":114.8325,"ARG_OF_PERICENTER":21.6261,"MEAN_ANOMALY":338.5534,"EPHEMERIS_TYPE":0,"CLASSIFICATION_TYPE":"U","NORAD_CAT_ID":43779,"ELEMENT_SET_NO":999,"REV_AT_EPOCH":39714,"BSTAR":0.00026511092,"MEAN_MOTION_DOT":3.923e-5,"MEAN_MOTION_DDOT":0}]
